SL-16 R/B               
1 22566U 93016B   26038.10597419 -.00000084  00000+0 -18897-4 0  9995
2 22566  71.0072 279.4199 0010199 356.0853   4.0188 14.15304015697840
COSMOS 2242             
1 22626U 93024A   26038.21235266  .00002725  00000+0  23740-3 0  9996
2 22626  82.5192 295.8663 0017685  51.0907 309.1888 14.96422626775834
SL-16 R/B               
1 22803U 93059B   26038.47984000  .00000214  00000+0  12943-3 0  9990
2 22803  70.9892  74.8360 0019493 257.9589 101.9350 14.17227074675250
ARIANE 40 R/B           
1 22830U 93061H   26038.18248738  .00000279  00000+0  11820-3 0  9996
2 22830  98.4981 107.6623 0010912  20.5486 339.6135 14.32844723689730
COSMOS 2278             
1 23087U 94023A   26038.46925041 -.00000184  00000+0 -71755-4 0  9991
2 23087  71.0501 238.3240 0006565  70.5171 289.6660 14.14363923640532
SL-16 R/B               
1 23088U 94023B   26038.45874633  .00000003  00000+0  26051-4 0  9998
2 23088  70.9998 134.3774 0004461 313.4768  46.5983 14.15003525641812
SL-16 R/B               
1 23343U 94074B   26038.07916124  .00000690  00000+0  99252-4 0  9993
2 23343  97.7149  70.1312 0005784 332.8982  50.3189 14.79371264682722
SL-16 R/B               
1 23405U 94077B   26038.45216405  .00000056  00000+0  53108-4 0  9998
2 23405  70.9814  56.1032 0004348 237.5119 122.5584 14.15556854611952
ARIANE 40+ R/B          
1 23561U 95021B   26038.16764017  .00000409  00000+0  14436-3 0  9998
2 23561  98.4560 110.0542 0005993 226.3215 187.7433 14.39749779614858
SL-16 R/B               
1 23705U 95058B   26038.03366162  .00000310  00000+0  18300-3 0  9998
2 23705  71.0189 244.6166 0012370 176.1023 184.0199 14.15491427563517
SL-16 R/B               
1 24298U 96051B   26038.50031100  .00000079  00000+0  69664-4 0  9995
2 24298  70.7565 239.1394 0017621 190.2193 169.8571 14.12406982517388
ORBVIEW 2 (SEASTAR)     
1 24883U 97037A   26038.44574351  .00000439  00000+0  16906-3 0  9993
2 24883  98.8513 201.9653 0002876 133.6052 226.5372 14.35471263504136
